ONEWEB-0528             
1 54643U 22166B   23260.51872573  .00000820  00000+0  19541-2 0  9991
2 54643  87.9170  83.8075 0001859  84.9141 275.2205 13.21827513 38958
ONEWEB-0539             
1 54644U 22166C   23260.55656577  .00000026  00000+0  31639-4 0  9992
2 54644  87.9173  83.7996 0001709  99.3244 260.8083 13.21827421 38953
ONEWEB-0540             
1 54645U 22166D   23260.55025093  .00000088  00000+0  18039-3 0  9992
2 54645  87.9173  83.8256 0001689  97.1205 263.0121 13.21824590 38945
ONEWEB-0542             
1 54646U 22166E   23260.56496838 -.00000053  00000+0 -15945-3 0  9990
2 54646  87.9173  83.7984 0001239 102.1861 257.9412 13.21828302 38950
ONEWEB-0545             
1 54647U 22166F   23260.53133899  .00000107  00000+0  22639-3 0  9999
2 54647  87.9171  83.8451 0001787 109.4771 250.6556 13.21826275 38919
ONEWEB-0580             
1 54648U 22166G   23260.50609292  .00000015  00000+0  47830-5 0  9992
2 54648  87.9167  83.8063 0001132  99.3386 260.7876 13.21828552 38958
ONEWEB-0582             
1 54649U 22166H   23260.54606025  .00000022  00000+0  21066-4 0  9998
2 54649  87.9172  83.8359 0001867  97.3204 262.8142 13.21826066 38930
ONEWEB-0583             
1 54650U 22166J   23260.55866865 -.00000024  00000+0 -89961-4 0  9993
2 54650  87.9172  83.8407 0002055  79.7783 280.3582 13.21827199 38944
